[{"OBJECT_NAME":"OBJECT J","OBJECT_ID":"2024-092J","EPOCH":"2026-03-09T22:08:58.299072","MEAN_MOTION":14.31802287,"ECCENTRICITY":0.00130036,"INCLINATION":98.6556,"RA_OF_ASC_NODE":188.1438,"ARG_OF_PERICENTER":138.752,"MEAN_ANOMALY":221.4648,"EPHEMERIS_TYPE":0,"CLASSIFICATION_TYPE":"U","NORAD_CAT_ID":59781,"ELEMENT_SET_NO":999,"REV_AT_EPOCH":9469,"BSTAR":0.00013473254,"MEAN_MOTION_DOT":3.16e-6,"MEAN_MOTION_DDOT":0},{"OBJECT_NAME":"SL-8 R\/B","OBJECT_ID":"1990-111B","EPOCH":"2026-03-09T22:31:54.588864","MEAN_MOTION":14.37273264,"ECCENTRICITY":0.00228005,"INCLINATION":74.0496,"RA_OF_ASC_NODE":47.5495,"ARG_OF_PERICENTER":244.346,"MEAN_ANOMALY":115.5339,"EPHEMERIS_TYPE":0,"CLASSIFICATION_TYPE":"U","NORAD_CAT_ID":21015,"ELEMENT_SET_NO":999,"REV_AT_EPOCH":94354,"BSTAR":9.732547e-5,"MEAN_MOTION_DOT":2.65e-6,"MEAN_MOTION_DDOT":0}]
